start=new Date('2023-05-17T00:00:00.000Z').valueOf();
sats=[{"MEAN_ELEMENT_THEORY":"SGP4","REF_FRAME":"TEME","TIME_SYSTEM":"UTC","ELEMENT_SET_NO":"999","PERIOD":"95.438","CLASSIFICATION_TYPE":"U","RCS_SIZE":"LARGE","DECAY_DATE":null,"ARG_OF_PERICENTER":"115.0451","MEAN_ANOMALY":"245.0675","TLE_LINE2":"2 53171  53.2190  71.3297 0001287 115.0451 245.0675 15.08833228 46495","COUNTRY_CODE":"US","MEAN_MOTION_DDOT":"0.0000000000000","OBJECT_NAME":"STARLINK-4052","LAUNCH_DATE":"2022-07-17","CENTER_NAME":"EARTH","ECCENTRICITY":"0.00012870","EPHEMERIS_TYPE":"0","OBJECT_TYPE":"PAYLOAD","RA_OF_ASC_NODE":"71.3297","MEAN_MOTION_DOT":"-0.00001931","REV_AT_EPOCH":"4649","SITE":"AFETR","MEAN_MOTION":"15.08833228","EPOCH":"2023-05-16T02:48:46.688256","FILE":"3909472","OBJECT_ID":"2022-083AR","APOAPSIS":"540.656","GP_ID":"231966080","BSTAR":"-0.00010330000000","INCLINATION":"53.2190","PERIAPSIS":"538.876","TLE_LINE1":"1 53171U 22083AR  23136.11720704 -.00001931  00000-0 -10330-3 0  9995","SEMIMAJOR_AXIS":"6917.901","NORAD_CAT_ID":"53171"},{"BSTAR":"0.00008982200000","INCLINATION":"53.2167","TLE_LINE1":"1 53172U 22083AS  23136.26764423  .00001142  00000-0  89822-4 0  9993","PERIAPSIS":"538.868","SEMIMAJOR_AXIS":"6917.877","NORAD_CAT_ID":"53172","GP_ID":"231966825","RA_OF_ASC_NODE":"95.7994","OBJECT_TYPE":"PAYLOAD","MEAN_MOTION_DOT":"0.00001142","REV_AT_EPOCH":"4616","SITE":"AFETR","MEAN_MOTION":"15.08841188","EPOCH":"2023-05-16T06:25:24.461472","FILE":"3909472","OBJECT_ID":"2022-083AS","APOAPSIS":"540.615","LAUNCH_DATE":"2022-07-17","CENTER_NAME":"EARTH","ECCENTRICITY":"0.00012630","EPHEMERIS_TYPE":"0","COUNTRY_CODE":"US","MEAN_MOTION_DDOT":"0.0000000000000","OBJECT_NAME":"STARLINK-4299","ARG_OF_PERICENTER":"102.0214","MEAN_ANOMALY":"258.0920","TLE_LINE2":"2 53172  53.2167  95.7994 0001263 102.0214 258.0920 15.08841188 46166","PERIOD":"95.437","ELEMENT_SET_NO":"999","CLASSIFICATION_TYPE":"U","RCS_SIZE":"LARGE","DECAY_DATE":null,"MEAN_ELEMENT_THEORY":"SGP4","REF_FRAME":"TEME","TIME_SYSTEM":"UTC"},{"GP_ID":"231999555","SEMIMAJOR_AXIS":"6917.872","NORAD_CAT_ID":"53173","INCLINATION":"53.2185","BSTAR":"0.00005129500000","TLE_LINE1":"1 53173U 22083AT  23136.81781627  .00000529  00000-0  51295-4 0  9991","PERIAPSIS":"538.800","EPHEMERIS_TYPE":"0","LAUNCH_DATE":"2022-07-17","CENTER_NAME":"EARTH","ECCENTRICITY":"0.00013540","MEAN_MOTION":"15.08842865","OBJECT_ID":"2022-083AT","APOAPSIS":"540.673","FILE":"3909742","EPOCH":"2023-05-16T19:37:39.325728","MEAN_MOTION_DOT":"0.00000529","OBJECT_TYPE":"PAYLOAD","RA_OF_ASC_NODE":"73.4057","SITE":"AFETR","REV_AT_EPOCH":"4652","MEAN_ANOMALY":"275.9078","TLE_LINE2":"2 53173  53.2185  73.4057 0001354  84.2068 275.9078 15.08842865 46524","ARG_OF_PERICENTER":"84.2068","MEAN_MOTION_DDOT":"0.0000000000000","OBJECT_NAME":"STARLINK-4300","COUNTRY_CODE":"US","REF_FRAME":"TEME","MEAN_ELEMENT_THEORY":"SGP4","TIME_SYSTEM":"UTC","CLASSIFICATION_TYPE":"U","DECAY_DATE":null,"RCS_SIZE":"LARGE","ELEMENT_SET_NO":"999","PERIOD":"95.437"},{"MEAN_MOTION_DOT":"0.00000187","RA_OF_ASC_NODE":"107.9883","OBJECT_TYPE":"PAYLOAD","SITE":"AFETR","REV_AT_EPOCH":"4605","MEAN_MOTION":"15.08838839","APOAPSIS":"540.655","OBJECT_ID":"2022-083AU","FILE":"3909742","EPOCH":"2023-05-16T21:53:26.869056","CENTER_NAME":"EARTH","LAUNCH_DATE":"2022-07-17","ECCENTRICITY":"0.00013100","EPHEMERIS_TYPE":"0","INCLINATION":"53.2177","BSTAR":"0.00002986200000","PERIAPSIS":"538.843","TLE_LINE1":"1 53174U 22083AU  23136.91211654  .00000187  00000-0  29862-4 0  9996","SEMIMAJOR_AXIS":"6917.884","NORAD_CAT_ID":"53174","GP_ID":"231999306","ELEMENT_SET_NO":"999","PERIOD":"95.438","CLASSIFICATION_TYPE":"U","DECAY_DATE":null,"RCS_SIZE":"LARGE","REF_FRAME":"TEME","MEAN_ELEMENT_THEORY":"SGP4","TIME_SYSTEM":"UTC","COUNTRY_CODE":"US","MEAN_MOTION_DDOT":"0.0000000000000","OBJECT_NAME":"STARLINK-4205","ARG_OF_PERICENTER":"90.1044","MEAN_ANOMALY":"270.0098","TLE_LINE2":"2 53174  53.2177 107.9883 0001310  90.1044 270.0098 15.08838839 46050"},{"GP_ID":"231965581","PERIAPSIS":"538.878","TLE_LINE1":"1 53175U 22083AV  23136.31227492  .00000601  00000-0  55868-4 0  9994","INCLINATION":"53.2172","BSTAR":"0.00005586800000","NORAD_CAT_ID":"53175","SEMIMAJOR_AXIS":"6917.884","ECCENTRICITY":"0.00012600","LAUNCH_DATE":"2022-07-17","CENTER_NAME":"EARTH","EPHEMERIS_TYPE":"0","SITE":"AFETR","REV_AT_EPOCH":"4596","MEAN_MOTION_DOT":"0.00000601","OBJECT_TYPE":"PAYLOAD","RA_OF_ASC_NODE":"110.6827","OBJECT_ID":"2022-083AV","APOAPSIS":"540.621","EPOCH":"2023-05-16T07:29:40.553088","FILE":"3909472","MEAN_MOTION":"15.08838747","ARG_OF_PERICENTER":"92.1106","TLE_LINE2":"2 53175  53.2172 110.6827 0001260  92.1106 268.0030 15.08838747 45960","MEAN_ANOMALY":"268.0030","COUNTRY_CODE":"US","OBJECT_NAME":"STARLINK-4292","MEAN_MOTION_DDOT":"0.0000000000000","TIME_SYSTEM":"UTC","REF_FRAME":"TEME","MEAN_ELEMENT_THEORY":"SGP4","PERIOD":"95.438","ELEMENT_SET_NO":"999","DECAY_DATE":null,"RCS_SIZE":"LARGE","CLASSIFICATION_TYPE":"U"},{"OBJECT_ID":"2022-083AW","APOAPSIS":"540.773","FILE":"3909472","EPOCH":"2023-05-16T06:00:14.835744","MEAN_MOTION":"15.08834443","SITE":"AFETR","REV_AT_EPOCH":"4630","MEAN_MOTION_DOT":"0.00000665","OBJECT_TYPE":"PAYLOAD","RA_OF_ASC_NODE":"85.8735","EPHEMERIS_TYPE":"0","ECCENTRICITY":"0.00014610","LAUNCH_DATE":"2022-07-17","CENTER_NAME":"EARTH","NORAD_CAT_ID":"53176","SEMIMAJOR_AXIS":"6917.897","PERIAPSIS":"538.752","TLE_LINE1":"1 53176U 22083AW  23136.25017171  .00000665  00000-0  59898-4 0  9996","INCLINATION":"53.2165","BSTAR":"0.00005989800000","GP_ID":"231966327","DECAY_DATE":null,"RCS_SIZE":"LARGE","CLASSIFICATION_TYPE":"U","ELEMENT_SET_NO":"999","PERIOD":"95.438","TIME_SYSTEM":"UTC","REF_FRAME":"TEME","MEAN_ELEMENT_THEORY":"SGP4","OBJECT_NAME":"STARLINK-4294","MEAN_MOTION_DDOT":"0.0000000000000","COUNTRY_CODE":"US","TLE_LINE2":"2 53176  53.2165  85.8735 0001461  85.0119 275.1040 15.08834443 46300","MEAN_ANOMALY":"275.1040","ARG_OF_PERICENTER":"85.0119"},{"CENTER_NAME":"EARTH","LAUNCH_DATE":"2022-07-17","ECCENTRICITY":"0.00011460","EPHEMERIS_TYPE":"0","MEAN_MOTION_DOT":"0.00001317","RA_OF_ASC_NODE":"76.1189","OBJECT_TYPE":"PAYLOAD","SITE":"AFETR","REV_AT_EPOCH":"4643","MEAN_MOTION":"15.08841462","APOAPSIS":"540.534","OBJECT_ID":"2022-083AX","FILE":"3909472","EPOCH":"2023-05-16T05:08:35.080224","GP_ID":"231966572","INCLINATION":"53.2186","BSTAR":"0.00010082000000","PERIAPSIS":"538.948","TLE_LINE1":"1 53177U 22083AX  23136.21429491  .00001317  00000-0  10082-3 0  9991","SEMIMAJOR_AXIS":"6917.876","NORAD_CAT_ID":"53177","REF_FRAME":"TEME","MEAN_ELEMENT_THEORY":"SGP4","TIME_SYSTEM":"UTC","ELEMENT_SET_NO":"999","PERIOD":"95.437","CLASSIFICATION_TYPE":"U","DECAY_DATE":null,"RCS_SIZE":"LARGE","ARG_OF_PERICENTER":"105.0020","MEAN_ANOMALY":"255.1099","TLE_LINE2":"2 53177  53.2186  76.1189 0001146 105.0020 255.1099 15.08841462 46439","COUNTRY_CODE":"US","MEAN_MOTION_DDOT":"0.0000000000000","OBJECT_NAME":"STARLINK-4298"},{"COUNTRY_CODE":"US","MEAN_MOTION_DDOT":"0.0000000000000","OBJECT_NAME":"STARLINK-4280","ARG_OF_PERICENTER":"94.7324","MEAN_ANOMALY":"265.3840","TLE_LINE2":"2 53178  53.2169  98.0349 0001501  94.7324 265.3840 15.08839313 46189","PERIOD":"95.438","ELEMENT_SET_NO":"999","CLASSIFICATION_TYPE":"U","DECAY_DATE":null,"RCS_SIZE":"LARGE","REF_FRAME":"TEME","MEAN_ELEMENT_THEORY":"SGP4","TIME_SYSTEM":"UTC","INCLINATION":"53.2169","BSTAR":"0.00001342200000","TLE_LINE1":"1 53178U 22083AY  23136.90199581 -.00000074  00000-0  13422-4 0  9994","PERIAPSIS":"538.709","SEMIMAJOR_AXIS":"6917.882","NORAD_CAT_ID":"53178","GP_ID":"231999806","MEAN_MOTION_DOT":"-0.00000074","OBJECT_TYPE":"PAYLOAD","RA_OF_ASC_NODE":"98.0349","SITE":"AFETR","REV_AT_EPOCH":"4618","MEAN_MOTION":"15.08839313","OBJECT_ID":"2022-083AY","APOAPSIS":"540.786","EPOCH":"2023-05-16T21:38:52.437984","FILE":"3909742","LAUNCH_DATE":"2022-07-17","CENTER_NAME":"EARTH","ECCENTRICITY":"0.00015010","EPHEMERIS_TYPE":"0"},{"MEAN_ELEMENT_THEORY":"SGP4","REF_FRAME":"TEME","TIME_SYSTEM":"UTC","ELEMENT_SET_NO":"999","PERIOD":"95.437","CLASSIFICATION_TYPE":"U","RCS_SIZE":"LARGE","DECAY_DATE":null,"ARG_OF_PERICENTER":"74.7560","MEAN_ANOMALY":"285.3546","TLE_LINE2":"2 53179  53.2183  60.6424 0001028  74.7560 285.3546 15.08843051 46650","COUNTRY_CODE":"US","MEAN_MOTION_DDOT":"0.0000000000000","OBJECT_NAME":"STARLINK-4276","LAUNCH_DATE":"2022-07-17","CENTER_NAME":"EARTH","ECCENTRICITY":"0.00010280","EPHEMERIS_TYPE":"0","RA_OF_ASC_NODE":"60.6424","OBJECT_TYPE":"PAYLOAD","MEAN_MOTION_DOT":"0.00001434","REV_AT_EPOCH":"4665","SITE":"AFETR","MEAN_MOTION":"15.08843051","EPOCH":"2023-05-16T05:34:20.923968","FILE":"3909472","APOAPSIS":"540.447","OBJECT_ID":"2022-083AZ","GP_ID":"231966081","BSTAR":"0.00010813000000","INCLINATION":"53.2183","PERIAPSIS":"539.025","TLE_LINE1":"1 53179U 22083AZ  23136.23218662  .00001434  00000-0  10813-3 0  9993","SEMIMAJOR_AXIS":"6917.871","NORAD_CAT_ID":"53179"},{"MEAN_MOTION_DOT":"0.00002054","RA_OF_ASC_NODE":"61.6584","OBJECT_TYPE":"PAYLOAD","SITE":"AFETR","REV_AT_EPOCH":"4662","MEAN_MOTION":"15.08843810","OBJECT_ID":"2022-083BA","APOAPSIS":"540.516","EPOCH":"2023-05-16T01:16:06.847392","FILE":"3909472","CENTER_NAME":"EARTH","LAUNCH_DATE":"2022-07-17","ECCENTRICITY":"0.00011310","EPHEMERIS_TYPE":"0","INCLINATION":"53.2182","BSTAR":"0.00014706000000","PERIAPSIS":"538.951","TLE_LINE1":"1 53180U 22083BA  23136.05285703  .00002054  00000-0  14706-3 0  9999","SEMIMAJOR_AXIS":"6917.869","NORAD_CAT_ID":"53180","GP_ID":"231966826","ELEMENT_SET_NO":"999","PERIOD":"95.437","CLASSIFICATION_TYPE":"U","DECAY_DATE":null,"RCS_SIZE":"LARGE","REF_FRAME":"TEME","MEAN_ELEMENT_THEORY":"SGP4","TIME_SYSTEM":"UTC","COUNTRY_CODE":"US","MEAN_MOTION_DDOT":"0.0000000000000","OBJECT_NAME":"STARLINK-4258","ARG_OF_PERICENTER":"97.7888","MEAN_ANOMALY":"262.3233","TLE_LINE2":"2 53180  53.2182  61.6584 0001131  97.7888 262.3233 15.08843810 46620"}];
